NOAA 15                 
1 25338U 98030A   22019.53872167  .00000081  00000+0  52135-4 0  9992
2 25338  98.6615  50.8939 0010578  17.3391 342.8148 14.26083574232048
NOAA 18                 
1 28654U 05018A   22019.47304055  .00000164  00000+0  11247-3 0  9999
2 28654  98.9688  89.9168 0014652  36.1184 324.0974 14.12678692859037
METOP-A                 
1 29499U 06044A   22018.90652778  .00000613  00000+0  89799-4 0  9999
2 29499  98.4717  58.6347 0200016 116.5146 234.6171 14.66892850788744
NOAA 19                 
1 33591U 09005A   22019.52852462  .00000088  00000+0  73099-4 0  9990
2 33591  99.1663  50.4033 0013109 244.6260 115.3554 14.12523510667423
METOP-B                 
1 38771U 12049A   22019.42896991  .00000059  00000+0  47025-4 0  9999
2 38771  98.6872  81.4556 0002144 104.3336  87.0072 14.21503318484556
SARAL                   
1 39086U 13009A   22018.86823559  .00000026  00000+0  26007-4 0  9994
2 39086  98.5436 206.7153 0001238  40.0219 320.1055 14.32049505465078
METOP-C                 
1 43689U 18087A   22019.42861605  .00000064  00000+0  49221-4 0  9991
2 43689  98.7069  81.6516 0003928 108.1269 252.0336 14.21489867166135
ANGELS                  
1 44876U 19092D   22019.04417877  .00001796  00000+0  93836-4 0  9997
2 44876  97.4682 204.4259 0012911 151.2576 208.9371 15.17118553115581
